NORAD_CAT_ID,OBJECT_NAME,OBJECT_TYPE,EPOCH,MEAN_MOTION,ECCENTRICITY,INCLINATION,RA_OF_ASC_NODE,ARG_OF_PERICENTER,MEAN_ANOMALY,BSTAR,MEAN_MOTION_DOT,MEAN_MOTION_DDOT,TLE_LINE0,TLE_LINE1,TLE_LINE2,SEMIMAJOR_AXIS,PERIOD,APOGEE,PERIGEE,DECAYED
53571.0,STARLINK-4584,PAYLOAD,2022-11-27 14:00:01,15.08805641,0.000156,53.2148,32.5712,52.4231,268.9951,0.0030487,0.00048521,0.0,0 STARLINK-4584,1 53571U 22101AW  22331.58334491  .00048521  00000-0  30487-2 0  9999,2 53571  53.2148  32.5712 0001560  52.4231 268.9951 15.08805641  1307,6917.985,95.44,540.93,538.771,0.0
53571.0,STARLINK-4584,PAYLOAD,2022-11-28 00:00:00,15.08816162,0.0001304,53.2149,30.6987,56.6863,9.2147,0.00051429,7.901e-05,0.0,0 STARLINK-4584,1 53571U 22101AW  22332.00001157  .00007901  00000-0  51429-3 0  9994,2 53571  53.2149  30.6987 0001304  56.6863   9.2147 15.08816162  1307,6917.953,95.439,540.72,538.9159999999998,0.0
53571.0,STARLINK-4584,PAYLOAD,2022-11-28 14:00:01,15.08811174,0.0001491,53.215,28.0816,49.0096,307.1562,0.0033743,0.00053781,0.0,0 STARLINK-4584,1 53571U 22101AW  22332.58334491  .00053781  00000-0  33743-2 0  9992,2 53571  53.2150  28.0816 0001491  49.0096 307.1562 15.08811174 15722,6917.968000000003,95.439,540.865,538.802,0.0
53571.0,STARLINK-4584,PAYLOAD,2022-11-28 22:00:01,15.08836936,0.0001339,53.215,26.5835,54.1761,313.6384,0.00070247,0.00010909,0.0,0 STARLINK-4584,1 53571U 22101AW  22332.91668981  .00010909  00000-0  70247-3 0  9999,2 53571  53.2150  26.5835 0001339  54.1761 313.6384 15.08836936  1309,6917.89,95.438,540.681,538.828,0.0
53571.0,STARLINK-4584,PAYLOAD,2022-11-29 06:00:00,15.08880346,0.0001382,53.2151,25.0873,56.8183,322.522,-0.0039011,-0.00061908,0.0,0 STARLINK-4584,1 53571U 22101AW  22333.25001157 -.00061908  00000-0 -39011-2 0  9993,2 53571  53.2151  25.0873 0001382  56.8183 322.5220 15.08880346 15825,6917.757,95.435,540.578,538.6659999999998,0.0
53571.0,STARLINK-4584,PAYLOAD,2022-11-29 14:00:01,15.08823774,0.0001539,53.2149,23.5921,50.0429,340.983,0.00061021,9.433e-05,0.0,0 STARLINK-4584,1 53571U 22101AW  22333.58335648  .00009433  00000-0  61021-3 0  9994,2 53571  53.2149  23.5921 0001539  50.0429 340.9830 15.08823774  1303,6917.93,95.439,540.86,538.73,0.0
53571.0,STARLINK-4584,PAYLOAD,2022-11-29 22:00:00,15.08805478,0.0001324,53.2148,22.094,54.5519,347.9998,0.001322,0.00020794,0.0,0 STARLINK-4584,1 53571U 22101AW  22333.91667824  .00020794  00000-0  13220-2 0  9995,2 53571  53.2148  22.0940 0001324  54.5519 347.9998 15.08805478 15924,6917.986,95.44,540.7669999999998,538.935,0.0
53571.0,STARLINK-4584,PAYLOAD,2022-11-30 14:00:01,15.08811595,0.000153,53.2148,19.1031,48.2044,17.5614,0.0032917,0.00052449,0.0,0 STARLINK-4584,1 53571U 22101AW  22334.58335648  .00052449  00000-0  32917-2 0  9991,2 53571  53.2148  19.1031 0001530  48.2044  17.5614 15.08811595  1303,6917.967,95.439,540.891,538.774,0.0
53571.0,STARLINK-4584,PAYLOAD,2022-11-30 22:00:00,15.08850797,0.0001431999999999,53.2159,17.6051,52.8608,24.4277,-0.0020748,-0.00033166,0.0,0 STARLINK-4584,1 53571U 22101AW  22334.91667824 -.00033166  00000-0 -20748-2 0  9998,2 53571  53.2159  17.6051 0001432  52.8608  24.4277 15.08850797  1307,6917.847,95.437,540.703,538.722,0.0
53571.0,STARLINK-4584,PAYLOAD,2022-12-01 06:00:00,15.08847781,0.0001520999999999,53.215,16.1091,57.9952,30.8877,-0.0020739,-0.0003315,0.0,0 STARLINK-4584,1 53571U 22101AW  22335.25001157 -.00033150  00000-0 -20739-2 0  9990,2 53571  53.2150  16.1091 0001521  57.9952  30.8877 15.08847781 16125,6917.857,95.437,540.774,538.669,0.0
53571.0,STARLINK-4584,PAYLOAD,2022-12-01 14:00:01,15.08790108,0.0001556,53.2169,14.6146,59.3831,41.1042,0.0046963,0.00075148,0.0,0 STARLINK-4584,1 53571U 22101AW  22335.58334491  .00075148  00000-0  46963-2 0  9994,2 53571  53.2169  14.6146 0001556  59.3831  41.1042 15.08790108  1302,6918.033,95.441,540.974,538.821,0.0
53571.0,STARLINK-4584,PAYLOAD,2022-12-01 22:00:00,15.08827694,0.0001563,53.2143,13.1155,58.4221,53.6665,0.0018087,0.00028605,0.0,0 STARLINK-4584,1 53571U 22101AW  22335.91667824  .00028605  00000-0  18087-2 0  9992,2 53571  53.2143  13.1155 0001563  58.4221  53.6665 15.08827694 16226,6917.918000000002,95.438,540.864,538.702,0.0
53571.0,STARLINK-4584,PAYLOAD,2022-12-02 14:00:01,15.08820303,0.0001836,53.2141,10.1243,53.20399999999999,82.0731,0.0021355,0.00033844,0.0,0 STARLINK-4584,1 53571U 22101AW  22336.58334491  .00033844  00000-0  21355-2 0  9990,2 53571  53.2141  10.1243 0001836  53.2040  82.0731 15.08820303 16325,6917.941,95.439,541.076,538.535,0.0
53571.0,STARLINK-4584,PAYLOAD,2022-12-02 22:00:00,15.08809991,0.0001647,53.2143,8.6261,57.8755,88.9978,0.001452,0.00022877,0.0,0 STARLINK-4584,1 53571U 22101AW  22336.91667824  .00022877  00000-0  14520-2 0  9996,2 53571  53.2143   8.6261 0001647  57.8755  88.9978 15.08809991  1302,6917.972,95.439,540.977,538.698,0.0
53571.0,STARLINK-4584,PAYLOAD,2022-12-03 06:00:00,15.08840045,0.000176,53.2144,7.1305,57.4411,100.9966,-0.0011282,-0.00018199,0.0,0 STARLINK-4584,1 53571U 22101AW  22337.25001157 -.00018199  00000-0 -11282-2 0  9991,2 53571  53.2144   7.1305 0001760  57.4411 100.9966 15.08840045 16423,6917.88,95.438,540.9630000000002,538.528,0.0
53571.0,STARLINK-4584,PAYLOAD,2022-12-03 14:00:01,15.08823521,0.0001847,53.2143,5.6349,51.0989,118.9282,0.0023693,0.00037604,0.0,0 STARLINK-4584,1 53571U 22101AW  22337.58334491  .00037604  00000-0  23693-2 0  9996,2 53571  53.2143   5.6349 0001847  51.0989 118.9282 15.08823521  1300,6917.931,95.439,541.0740000000002,538.518,0.0
53571.0,STARLINK-4584,PAYLOAD,2022-12-03 22:00:00,15.08821849,0.0001653,53.2145,4.1367,55.7165,125.9117,0.00084918,0.00013246,0.0,0 STARLINK-4584,1 53571U 22101AW  22337.91667824  .00013246  00000-0  84918-3 0  9996,2 53571  53.2145   4.1367 0001653  55.7165 125.9117 15.08821849  1304,6917.936,95.439,540.944,538.6569999999998,0.0
53571.0,STARLINK-4584,PAYLOAD,2022-12-04 14:00:01,15.08833553,0.0001843,53.2145,1.1455,49.395,155.4004,0.0016817999999999,0.00026575,0.0,0 STARLINK-4584,1 53571U 22101AW  22338.58334491  .00026575  00000-0  16818-2 0  9993,2 53571  53.2145   1.1455 0001843  49.3950 155.4004 15.08833553  1309,6917.9,95.438,541.04,538.49,0.0
53571.0,STARLINK-4584,PAYLOAD,2022-12-04 22:00:00,15.08826058,0.0001649,53.2147,359.6472,54.1444,162.2614,0.0013387,0.00021074,0.0,0 STARLINK-4584,1 53571U 22101AW  22338.91667824  .00021074  00000-0  13387-2 0  9996,2 53571  53.2147 359.6472 0001649  54.1444 162.2614 15.08826058  1302,6917.9230000000025,95.438,540.929,538.6469999999998,0.0
53571.0,STARLINK-4584,PAYLOAD,2022-12-05 06:00:00,15.08850763,0.0001748,53.2148,358.1519,52.6224,175.3704,-0.00045732,-7.561e-05,0.0,0 STARLINK-4584,1 53571U 22101AW  22339.25001157 -.00007561  00000-0 -45732-3 0  9992,2 53571  53.2148 358.1519 0001748  52.6224 175.3704 15.08850763 16725,6917.847,95.437,540.922,538.503,0.0
53571.0,STARLINK-4584,PAYLOAD,2022-12-05 14:00:01,15.08856075,0.0001794,53.2146,356.6559,48.3042,191.3516,0.00029533,4.417e-05,0.0,0 STARLINK-4584,1 53571U 22101AW  22339.58335648  .00004417  00000-0  29533-3 0  9999,2 53571  53.2146 356.6559 0001794  48.3042 191.3516 15.08856075  1300,6917.831,95.437,540.937,538.455,0.0
53571.0,STARLINK-4584,PAYLOAD,2022-12-05 16:00:00,15.08884266,0.0001742,53.2146,356.2813,48.8091,283.6804,-0.0037835,-0.00060074,0.0,0 STARLINK-4584,1 53571U 22101AW  22339.66667824 -.00060074  00000-0 -37835-2 0  9998,2 53571  53.2146 356.2813 0001742  48.8091 283.6804 15.08884266  1309,6917.745,95.435,540.815,538.405,0.0
53571.0,STARLINK-4584,PAYLOAD,2022-12-06 01:39:37,15.08847482,0.000165,53.2164,354.4718,54.7609,305.3538,6.5571e-05,7.56e-06,0.0,0 STARLINK-4584,1 53571U 22101AW  22340.06918961  .00000756  00000-0  65571-4 0  9994,2 53571  53.2164 354.4718 0001650  54.7609 305.3538 15.08847482 16853,6917.858,95.437,540.864,538.581,0.0
53571.0,STARLINK-4584,PAYLOAD,2022-12-06 06:25:47,15.08840574,0.0001648,53.2163,353.5806,52.1699,307.9442,2.9575e-05,1.83e-06,0.0,0 STARLINK-4584,1 53571U 22101AW  22340.26791452  .00000183  00000-0  29575-4 0  9998,2 53571  53.2163 353.5806 0001648  52.1699 307.9442 15.08840574 16888,6917.879,95.438,540.884,538.604,0.0
53571.0,STARLINK-4584,PAYLOAD,2022-12-06 17:33:30,15.08831293,0.0001703,53.2164,351.4985,51.823,308.2915,-1.5982e-05,-5.42e-06,0.0,0 STARLINK-4584,1 53571U 22101AW  22340.73160258 -.00000542  00000-0 -15982-4 0  9992,2 53571  53.2164 351.4985 0001703  51.8230 308.2915 15.08831293 16958,6917.906999999997,95.438,540.95,538.594,0.0
53571.0,STARLINK-4584,PAYLOAD,2022-12-07 17:24:17,15.088354999999998,0.0001675,53.2157,347.039,55.9322,304.1829,-3.6316e-05,-8.66e-06,0.0,0 STARLINK-4584,1 53571U 22101AW  22341.72520372 -.00000866  00000-0 -36316-4 0  9992,2 53571  53.2157 347.0390 0001675  55.9322 304.1829 15.08835500 17793,6917.894,95.438,540.918,538.6,0.0
53571.0,STARLINK-4584,PAYLOAD,2022-12-08 01:21:12,15.08847593,0.0001675,53.2165,345.5521,56.933,303.1823,2.5439e-05,1.17e-06,0.0,0 STARLINK-4584,1 53571U 22101AW  22342.05639332  .00000117  00000-0  25439-4 0  9997,2 53571  53.2165 345.5521 0001675  56.9330 303.1823 15.08847593 17159,6917.857,95.437,540.881,538.563,0.0
53571.0,STARLINK-4584,PAYLOAD,2022-12-08 04:31:58,15.08848258,0.0001738,53.2171,344.9597,65.4643,294.653,8.509899999999999e-05,1.067e-05,0.0,0 STARLINK-4584,1 53571U 22101AW  22342.18887008  .00001067  00000-0  85099-4 0  9999,2 53571  53.2171 344.9597 0001738  65.4643 294.6530 15.08848258 17860,6917.855,95.437,540.922,538.518,0.0
53571.0,STARLINK-4584,PAYLOAD,2022-12-08 07:42:44,15.08847332,0.0001641,53.2161,344.3621,61.8639,298.2519,6.4649e-05,7.41e-06,0.0,0 STARLINK-4584,1 53571U 22101AW  22342.32135018  .00000741  00000-0  64649-4 0  9998,2 53571  53.2161 344.3621 0001641  61.8639 298.2519 15.08847332 17880,6917.858,95.437,540.8580000000002,538.5880000000002,0.0
